start=new Date('2021-11-01T00:00:00.000Z').valueOf();
sats=[{"DECAY_DATE":null,"PERIAPSIS":"546.422","BSTAR":"0.00009170300000","INCLINATION":"53.0567","RCS_SIZE":"LARGE","SEMIMAJOR_AXIS":"6925.379","OBJECT_ID":"2021-036AP","PERIOD":"95.593","CENTER_NAME":"EARTH","ELEMENT_SET_NO":"999","OBJECT_NAME":"STARLINK-2541","TIME_SYSTEM":"UTC","MEAN_MOTION":"15.06390110","FILE":"3194579","TLE_LINE1":"1 48313U 21036AP  21304.54604153  .00001084  00000-0  91703-4 0  9996","REF_FRAME":"TEME","LAUNCH_DATE":"2021-04-29","ECCENTRICITY":"0.00011870","RA_OF_ASC_NODE":"30.0640","TLE_LINE2":"2 48313  53.0567  30.0640 0001187  85.3425 274.7699 15.06390110 29140","ARG_OF_PERICENTER":"85.3425","EPOCH":"2021-10-31T13:06:17.988192","MEAN_MOTION_DDOT":"0.0000000000000","GP_ID":"188577130","NORAD_CAT_ID":"48313","MEAN_MOTION_DOT":"0.00001084","MEAN_ANOMALY":"274.7699","MEAN_ELEMENT_THEORY":"SGP4","SITE":"AFETR","OBJECT_TYPE":"PAYLOAD","REV_AT_EPOCH":"2914","COUNTRY_CODE":"US","EPHEMERIS_TYPE":"0","APOAPSIS":"548.066","CLASSIFICATION_TYPE":"U"},{"SEMIMAJOR_AXIS":"6925.353","RCS_SIZE":"LARGE","INCLINATION":"53.0547","PERIOD":"95.592","OBJECT_ID":"2021-036AQ","PERIAPSIS":"546.196","DECAY_DATE":null,"BSTAR":"0.00007394800000","REF_FRAME":"TEME","TLE_LINE1":"1 48314U 21036AQ  21304.54234795  .00000820  00000-0  73948-4 0  9996","LAUNCH_DATE":"2021-04-29","TIME_SYSTEM":"UTC","OBJECT_NAME":"STARLINK-2549","ELEMENT_SET_NO":"999","CENTER_NAME":"EARTH","FILE":"3194431","MEAN_MOTION":"15.06398612","NORAD_CAT_ID":"48314","GP_ID":"188572436","MEAN_MOTION_DDOT":"0.0000000000000","EPOCH":"2021-10-31T13:00:58.862880","MEAN_ANOMALY":"288.2680","MEAN_MOTION_DOT":"0.00000820","RA_OF_ASC_NODE":"30.0797","ECCENTRICITY":"0.00014750","ARG_OF_PERICENTER":"71.8469","TLE_LINE2":"2 48314  53.0547  30.0797 0001475  71.8469 288.2680 15.06398612 28492","APOAPSIS":"548.239","COUNTRY_CODE":"US","EPHEMERIS_TYPE":"0","CLASSIFICATION_TYPE":"U","OBJECT_TYPE":"PAYLOAD","MEAN_ELEMENT_THEORY":"SGP4","SITE":"AFETR","REV_AT_EPOCH":"2849"},{"APOAPSIS":"548.199","EPHEMERIS_TYPE":"0","COUNTRY_CODE":"US","CLASSIFICATION_TYPE":"U","OBJECT_TYPE":"PAYLOAD","MEAN_ELEMENT_THEORY":"SGP4","SITE":"AFETR","REV_AT_EPOCH":"2852","NORAD_CAT_ID":"48315","GP_ID":"188606580","MEAN_MOTION_DDOT":"0.0000000000000","EPOCH":"2021-10-31T17:42:17.853696","MEAN_ANOMALY":"284.4977","MEAN_MOTION_DOT":"-0.00001963","RA_OF_ASC_NODE":"29.1949","ECCENTRICITY":"0.00013670","ARG_OF_PERICENTER":"75.6163","TLE_LINE2":"2 48315  53.0561  29.1949 0001367  75.6163 284.4977 15.06387359 28527","REF_FRAME":"TEME","TLE_LINE1":"1 48315U 21036AR  21304.73770664 -.00001963  00000-0 -11295-3 0  9995","LAUNCH_DATE":"2021-04-29","TIME_SYSTEM":"UTC","OBJECT_NAME":"STARLINK-2506","CENTER_NAME":"EARTH","ELEMENT_SET_NO":"999","FILE":"3194950","MEAN_MOTION":"15.06387359","SEMIMAJOR_AXIS":"6925.387","RCS_SIZE":"LARGE","INCLINATION":"53.0561","PERIOD":"95.593","OBJECT_ID":"2021-036AR","PERIAPSIS":"546.306","DECAY_DATE":null,"BSTAR":"-0.00011295000000"},{"OBJECT_NAME":"STARLINK-2507","TIME_SYSTEM":"UTC","CENTER_NAME":"EARTH","ELEMENT_SET_NO":"999","FILE":"3194950","MEAN_MOTION":"15.06396033","REF_FRAME":"TEME","TLE_LINE1":"1 48316U 21036AS  21304.66767206 -.00000767  00000-0 -32579-4 0  9996","LAUNCH_DATE":"2021-04-29","DECAY_DATE":null,"PERIAPSIS":"546.342","BSTAR":"-0.00003257900000","SEMIMAJOR_AXIS":"6925.361","INCLINATION":"53.0559","RCS_SIZE":"LARGE","OBJECT_ID":"2021-036AS","PERIOD":"95.592","OBJECT_TYPE":"PAYLOAD","SITE":"AFETR","MEAN_ELEMENT_THEORY":"SGP4","REV_AT_EPOCH":"2851","APOAPSIS":"548.109","EPHEMERIS_TYPE":"0","COUNTRY_CODE":"US","CLASSIFICATION_TYPE":"U","RA_OF_ASC_NODE":"29.5132","ECCENTRICITY":"0.00012760","TLE_LINE2":"2 48316  53.0559  29.5132 0001276  80.4854 279.6279 15.06396033 28512","ARG_OF_PERICENTER":"80.4854","NORAD_CAT_ID":"48316","EPOCH":"2021-10-31T16:01:26.865984","MEAN_MOTION_DDOT":"0.0000000000000","GP_ID":"188606830","MEAN_MOTION_DOT":"-0.00000767","MEAN_ANOMALY":"279.6279"},{"CLASSIFICATION_TYPE":"U","APOAPSIS":"548.132","COUNTRY_CODE":"US","EPHEMERIS_TYPE":"0","REV_AT_EPOCH":"2852","OBJECT_TYPE":"PAYLOAD","MEAN_ELEMENT_THEORY":"SGP4","SITE":"AFETR","MEAN_ANOMALY":"278.1304","MEAN_MOTION_DOT":"-0.00000595","NORAD_CAT_ID":"48317","GP_ID":"188607582","MEAN_MOTION_DDOT":"0.0000000000000","EPOCH":"2021-10-31T17:31:40.602720","ARG_OF_PERICENTER":"81.9835","TLE_LINE2":"2 48317  53.0563  29.2284 0001325  81.9835 278.1304 15.06399865 28523","RA_OF_ASC_NODE":"29.2284","ECCENTRICITY":"0.00013250","LAUNCH_DATE":"2021-04-29","REF_FRAME":"TEME","TLE_LINE1":"1 48317U 21036AT  21304.73033105 -.00000595  00000-0 -21025-4 0  9992","FILE":"3194950","MEAN_MOTION":"15.06399865","TIME_SYSTEM":"UTC","OBJECT_NAME":"STARLINK-2513","ELEMENT_SET_NO":"999","CENTER_NAME":"EARTH","PERIOD":"95.592","OBJECT_ID":"2021-036AT","SEMIMAJOR_AXIS":"6925.349","RCS_SIZE":"LARGE","INCLINATION":"53.0563","BSTAR":"-0.00002102500000","PERIAPSIS":"546.296","DECAY_DATE":null},{"ELEMENT_SET_NO":"999","CENTER_NAME":"EARTH","TIME_SYSTEM":"UTC","OBJECT_NAME":"STARLINK-2509","MEAN_MOTION":"15.06332866","FILE":"3194950","TLE_LINE1":"1 48318U 21036AU  21304.78840643 -.00021973  00000-0 -14634-2 0  9990","REF_FRAME":"TEME","LAUNCH_DATE":"2021-04-29","PERIAPSIS":"546.205","DECAY_DATE":null,"BSTAR":"-0.00146340000000","RCS_SIZE":"LARGE","INCLINATION":"53.0541","SEMIMAJOR_AXIS":"6925.554","PERIOD":"95.596","OBJECT_ID":"2021-036AU","MEAN_ELEMENT_THEORY":"SGP4","SITE":"AFETR","OBJECT_TYPE":"PAYLOAD","REV_AT_EPOCH":"2839","EPHEMERIS_TYPE":"0","COUNTRY_CODE":"US","APOAPSIS":"548.634","CLASSIFICATION_TYPE":"U","ECCENTRICITY":"0.00017540","RA_OF_ASC_NODE":"38.9563","ARG_OF_PERICENTER":"81.1041","TLE_LINE2":"2 48318  53.0541  38.9563 0001754  81.1041 279.0147 15.06332866 28392","GP_ID":"188607826","EPOCH":"2021-10-31T18:55:18.315552","MEAN_MOTION_DDOT":"0.0000000000000","NORAD_CAT_ID":"48318","MEAN_ANOMALY":"279.0147","MEAN_MOTION_DOT":"-0.00021973"},{"SEMIMAJOR_AXIS":"6925.337","INCLINATION":"53.0542","RCS_SIZE":"LARGE","OBJECT_ID":"2021-036AV","PERIOD":"95.592","DECAY_DATE":null,"PERIAPSIS":"546.186","BSTAR":"0.00011808000000","REF_FRAME":"TEME","TLE_LINE1":"1 48319U 21036AV  21304.71834913  .00001478  00000-0  11808-3 0  9994","LAUNCH_DATE":"2021-04-29","OBJECT_NAME":"STARLINK-2512","TIME_SYSTEM":"UTC","CENTER_NAME":"EARTH","ELEMENT_SET_NO":"999","FILE":"3194950","MEAN_MOTION":"15.06403806","NORAD_CAT_ID":"48319","MEAN_MOTION_DDOT":"0.0000000000000","EPOCH":"2021-10-31T17:14:25.364832","GP_ID":"188606080","MEAN_MOTION_DOT":"0.00001478","MEAN_ANOMALY":"287.5378","RA_OF_ASC_NODE":"39.2760","ECCENTRICITY":"0.00014670","TLE_LINE2":"2 48319  53.0542  39.2760 0001467  72.5771 287.5378 15.06403806 28384","ARG_OF_PERICENTER":"72.5771","APOAPSIS":"548.218","COUNTRY_CODE":"US","EPHEMERIS_TYPE":"0","CLASSIFICATION_TYPE":"U","OBJECT_TYPE":"PAYLOAD","SITE":"AFETR","MEAN_ELEMENT_THEORY":"SGP4","REV_AT_EPOCH":"2838"},{"LAUNCH_DATE":"2021-04-29","REF_FRAME":"TEME","TLE_LINE1":"1 48320U 21036AW  21304.64832315 -.00000148  00000-0  89578-5 0  9997","FILE":"3194950","MEAN_MOTION":"15.06397214","OBJECT_NAME":"STARLINK-2029","TIME_SYSTEM":"UTC","CENTER_NAME":"EARTH","ELEMENT_SET_NO":"999","OBJECT_ID":"2021-036AW","PERIOD":"95.592","SEMIMAJOR_AXIS":"6925.357","INCLINATION":"53.0556","RCS_SIZE":"LARGE","BSTAR":"0.00000895780000","DECAY_DATE":null,"PERIAPSIS":"546.239","CLASSIFICATION_TYPE":"U","APOAPSIS":"548.205","COUNTRY_CODE":"US","EPHEMERIS_TYPE":"0","REV_AT_EPOCH":"2837","OBJECT_TYPE":"PAYLOAD","MEAN_ELEMENT_THEORY":"SGP4","SITE":"AFETR","MEAN_MOTION_DOT":"-0.00000148","MEAN_ANOMALY":"277.5816","NORAD_CAT_ID":"48320","EPOCH":"2021-10-31T15:33:35.120160","MEAN_MOTION_DDOT":"0.0000000000000","GP_ID":"188606330","TLE_LINE2":"2 48320  53.0556  39.5792 0001420  82.5335 277.5816 15.06397214 28375","ARG_OF_PERICENTER":"82.5335","RA_OF_ASC_NODE":"39.5792","ECCENTRICITY":"0.00014200"},{"CLASSIFICATION_TYPE":"U","EPHEMERIS_TYPE":"0","COUNTRY_CODE":"US","APOAPSIS":"547.959","REV_AT_EPOCH":"2837","SITE":"AFETR","MEAN_ELEMENT_THEORY":"SGP4","OBJECT_TYPE":"PAYLOAD","MEAN_ANOMALY":"284.1038","MEAN_MOTION_DOT":"0.00000693","GP_ID":"188607082","MEAN_MOTION_DDOT":"0.0000000000000","EPOCH":"2021-10-31T15:28:16.956480","NORAD_CAT_ID":"48321","ARG_OF_PERICENTER":"76.0072","TLE_LINE2":"2 48321  53.0563  39.5971 0001087  76.0072 284.1038 15.06402340 28375","ECCENTRICITY":"0.00010870","RA_OF_ASC_NODE":"39.5971","LAUNCH_DATE":"2021-04-29","TLE_LINE1":"1 48321U 21036AX  21304.64464070  .00000693  00000-0  65415-4 0  9994","REF_FRAME":"TEME","MEAN_MOTION":"15.06402340","FILE":"3194950","CENTER_NAME":"EARTH","ELEMENT_SET_NO":"999","TIME_SYSTEM":"UTC","OBJECT_NAME":"STARLINK-2457","PERIOD":"95.592","OBJECT_ID":"2021-036AX","RCS_SIZE":"LARGE","INCLINATION":"53.0563","SEMIMAJOR_AXIS":"6925.341","BSTAR":"0.00006541500000","PERIAPSIS":"546.454","DECAY_DATE":null},{"SEMIMAJOR_AXIS":"6925.344","RCS_SIZE":"LARGE","INCLINATION":"53.0562","PERIOD":"95.592","OBJECT_ID":"2021-036AY","PERIAPSIS":"546.343","DECAY_DATE":null,"BSTAR":"0.00014078000000","REF_FRAME":"TEME","TLE_LINE1":"1 48322U 21036AY  21304.70728988  .00001816  00000-0  14078-3 0  9999","LAUNCH_DATE":"2021-04-29","TIME_SYSTEM":"UTC","OBJECT_NAME":"STARLINK-2477","CENTER_NAME":"EARTH","ELEMENT_SET_NO":"999","FILE":"3194950","MEAN_MOTION":"15.06401435","NORAD_CAT_ID":"48322","GP_ID":"188607326","MEAN_MOTION_DDOT":"0.0000000000000","EPOCH":"2021-10-31T16:58:29.845632","MEAN_ANOMALY":"275.4504","MEAN_MOTION_DOT":"0.00001816","RA_OF_ASC_NODE":"39.3130","ECCENTRICITY":"0.00012500","ARG_OF_PERICENTER":"84.6628","TLE_LINE2":"2 48322  53.0562  39.3130 0001250  84.6628 275.4504 15.06401435 28380","APOAPSIS":"548.075","EPHEMERIS_TYPE":"0","COUNTRY_CODE":"US","CLASSIFICATION_TYPE":"U","OBJECT_TYPE":"PAYLOAD","MEAN_ELEMENT_THEORY":"SGP4","SITE":"AFETR","REV_AT_EPOCH":"2838"}];
